GEOSCAN-3 (RS92S3)
1 64893U 25155T   26188.58722558  .00013249  00000-0  37820-3 0  9997
2 64893  97.4547 158.7121 0008571 106.7993 253.4192 15.36121569 83982
INNOSAT3 (RS92S0)
1 64894U 25155U   26188.59047058  .00028580  00000-0  59800-3 0  9990
2 64894  97.4493 160.5969 0008309 107.0707 253.1452 15.45390531 84119
KNACKSAT-2
1 67683U 98067XZ  26187.43025761  .00050889  00000-0  57855-3 0  9995
2 67683  51.6265 197.5608 0008260 296.8985  63.1164 15.61755488 23282
