OBJECT_NAME,OBJECT_ID,EPOCH,MEAN_MOTION,ECCENTRICITY,INCLINATION,RA_OF_ASC_NODE,ARG_OF_PERICENTER,MEAN_ANOMALY,EPHEMERIS_TYPE,CLASSIFICATION_TYPE,NORAD_CAT_ID,ELEMENT_SET_NO,REV_AT_EPOCH,BSTAR,MEAN_MOTION_DOT,MEAN_MOTION_DDOT
GEOSCAN 3 (RS92S3),2025-155T,2026-07-07T14:05:36.290112,15.36121569,.00085715,97.4547,158.7121,106.7993,253.4192,0,U,64893,999,8398,.37820182E-3,.13249E-3,0
INNOSAT 3 (RS92S0),2025-155U,2026-07-07T14:10:16.658112,15.45390531,.00083094,97.4493,160.5969,107.0707,253.1452,0,U,64894,999,8411,.59799733E-3,.2858E-3,0
KNACKSAT-2,1998-067XZ,2026-07-06T10:19:34.257504,15.61755488,.00082597,51.6265,197.5608,296.8985,63.1164,0,U,67683,999,2328,.57854596E-3,.50889E-3,0
